     2              NAVIGATION DATA                         RINEX VERSION / TYPE
CCRINEXN V1.6.0 UX  CDDIS               30-JUL-06 02:51     PGM / RUN BY / DATE 
IGS BROADCAST EPHEMERIS FILE                                COMMENT             
    0.4657E-08  0.1490E-07 -0.5960E-07 -0.5960E-07          ION ALPHA           
    0.7782E+05  0.4915E+05 -0.6554E+05 -0.3277E+06          ION BETA            
   -0.372529029846E-08-0.150990331349E-13    61440     1386 DELTA-UTC: A0,A1,T,W
    14                                                      LEAP SECONDS        
                                                            END OF HEADER       
24 06  7 29 10  0  0.0 0.243321992457E-04 0.284217094304E-11 0.000000000000E+00
    0.194000000000E+03-0.193750000000E+01 0.501199448397E-08-0.175066637490E+01
    0.447034835815E-07 0.918176467530E-02 0.539049506187E-05 0.515390390015E+04
    0.554400000000E+06-0.238418579102E-06-0.647800034352E+00 0.838190317154E-07
    0.959148972930E+00 0.279500000000E+03-0.899828269482E+00-0.832498962638E-08
   -0.100361323309E-09 0.100000000000E+01 0.138500000000E+04 0.000000000000E+00
    0.200000000000E+01 0.000000000000E+00-0.931322574616E-09 0.194000000000E+03
    0.547218000000E+06 0.400000000000E+01 0.000000000000E+00 0.000000000000E+00
25 06  7 29 10  0  0.0 0.236213207245E-03 0.735553840059E-10 0.000000000000E+00
    0.139000000000E+03-0.240312500000E+02 0.491770490996E-08-0.190204053139E+01
   -0.102445483208E-05 0.125675868476E-01 0.306777656078E-05 0.515365962601E+04
    0.554400000000E+06 0.689178705216E-07 0.234930078133E+01 0.284984707832E-06
    0.954857390100E+00 0.319187500000E+03-0.133435412914E+01-0.840606428909E-08
   -0.982183778753E-10 0.100000000000E+01 0.138500000000E+04 0.000000000000E+00
    0.570000000000E+01 0.000000000000E+00-0.698491930962E-08 0.139000000000E+03
    0.547218000000E+06 0.400000000000E+01 0.000000000000E+00 0.000000000000E+00
26 06  7 29 10  0  0.0-0.196551438421E-03-0.135287336889E-10 0.000000000000E+00
    0.163000000000E+03 0.644687500000E+02 0.392409202561E-08-0.701515742729E+00
    0.354647636414E-05 0.174589277012E-01 0.694207847118E-05 0.515370553017E+04
    0.554400000000E+06 0.119209289551E-06 0.142230401505E+01 0.303611159325E-06
    0.990374742820E+00 0.261500000000E+03 0.808830403993E+00-0.802104839458E-08
    0.164292557730E-09 0.100000000000E+01 0.138500000000E+04 0.000000000000E+00
    0.200000000000E+01 0.000000000000E+00-0.651925802231E-08 0.163000000000E+03
    0.553728000000E+06 0.400000000000E+01 0.000000000000E+00 0.000000000000E+00
27 06  7 29 10  0  0.0 0.602537766099E-04 0.181898940355E-11 0.000000000000E+00
    0.170000000000E+02-0.254062500000E+02 0.469483841601E-08 0.289955518780E+01
   -0.141561031342E-05 0.198496149387E-01 0.290758907795E-05 0.515361072922E+04
    0.554400000000E+06 0.128522515297E-06 0.238140294594E+01-0.195577740669E-06
    0.959426362679E+00 0.319531250000E+03-0.190846207760E+01-0.803604901941E-08
   -0.842892252703E-10 0.100000000000E+01 0.138500000000E+04 0.000000000000E+00
    0.280000000000E+01 0.000000000000E+00-0.419095158577E-08 0.273000000000E+03
    0.553788000000E+06 0.400000000000E+01 0.000000000000E+00 0.000000000000E+00
28 06  7 29 10  0  0.0 0.221217051148E-04-0.795807864051E-12 0.000000000000E+00
    0.128000000000E+03-0.778125000000E+02 0.428374986395E-08 0.172405039593E+01
   -0.399164855480E-05 0.115545430454E-01 0.100415199995E-04 0.515368137741E+04
    0.554400000000E+06-0.244006514549E-06-0.277427474706E+01-0.987201929092E-07
    0.960915225611E+00 0.187718750000E+03-0.224218390805E+01-0.799569019545E-08
   -0.147148986489E-09 0.100000000000E+01 0.138500000000E+04 0.000000000000E+00
    0.200000000000E+01 0.000000000000E+00-0.102445483208E-07 0.128000000000E+03
    0.547218000000E+06 0.400000000000E+01 0.000000000000E+00 0.000000000000E+00
29 06  7 29 10  0  0.0 0.631762668490E-03 0.181898940355E-11 0.000000000000E+00
    0.560000000000E+02 0.592500000000E+02 0.395159317115E-08 0.113503572624E+01
    0.288896262646E-05 0.940621248446E-02 0.729411840439E-05 0.515374046135E+04
    0.554400000000E+06 0.167638063431E-06 0.138749312741E+01-0.154599547386E-06
    0.987023874832E+00 0.248375000000E+03-0.872729346143E+00-0.783925510787E-08
    0.159649507186E-09 0.100000000000E+01 0.138500000000E+04 0.000000000000E+00
    0.200000000000E+01 0.000000000000E+00-0.698491930962E-08 0.312000000000E+03
    0.552768000000E+06 0.400000000000E+01 0.000000000000E+00 0.000000000000E+00
 4 06  7 29 11 59 44.0 0.283774919808E-03 0.704858393874E-11 0.000000000000E+00
    0.120000000000E+03-0.293750000000E+01 0.520235955630E-08-0.211684156539E+01
   -0.368803739548E-06 0.735458824784E-02 0.494904816151E-05 0.515362692642E+04
    0.561584000000E+06-0.335276126862E-07-0.682246656849E+00-0.145286321640E-06
    0.948892539126E+00 0.279906250000E+03 0.157444413643E+00-0.841070748258E-08
   -0.164292557730E-10 0.100000000000E+01 0.138500000000E+04 0.000000000000E+00
    0.200000000000E+01 0.000000000000E+00-0.558793544769E-08 0.120000000000E+03
    0.556326000000E+06 0.400000000000E+01 0.000000000000E+00 0.000000000000E+00
14 06  7 29 11 59 44.0-0.881077721715E-05 0.795807864051E-12 0.000000000000E+00
    0.760000000000E+02 0.644375000000E+02 0.394802159380E-08 0.143200566350E+01
    0.336579978466E-05 0.244375155307E-02 0.729598104954E-05 0.515367173958E+04
    0.561584000000E+06-0.100582838059E-06 0.140812313819E+01 0.242143869400E-07
    0.986377936520E+00 0.253812500000E+03-0.213579024881E+01-0.788639992878E-08
    0.233581158164E-09 0.100000000000E+01 0.138500000000E+04 0.000000000000E+00
    0.200000000000E+01 0.000000000000E+00-0.931322574616E-08 0.760000000000E+02
    0.554418000000E+06 0.400000000000E+01 0.000000000000E+00 0.000000000000E+00
25 06  7 29 11 59 44.0 0.236735213548E-03 0.734416971682E-10 0.000000000000E+00
    0.161000000000E+03-0.234687500000E+02 0.504521002753E-08-0.854207609519E+00
   -0.117532908917E-05 0.125677310862E-01 0.340677797794E-05 0.515365905952E+04
    0.561584000000E+06-0.135973095894E-06 0.234923844200E+01 0.316649675369E-07
    0.954855693115E+00 0.315468750000E+03-0.133432708271E+01-0.871072014519E-08
   -0.150006240068E-10 0.100000000000E+01 0.138500000000E+04 0.000000000000E+00
    0.200000000000E+01 0.000000000000E+00-0.698491930962E-08 0.417000000000E+03
    0.558138000000E+06 0.400000000000E+01 0.000000000000E+00 0.000000000000E+00
29 06  7 29 11 59 44.0 0.631773844361E-03 0.181898940355E-11 0.000000000000E+00
    0.770000000000E+02 0.649375000000E+02 0.397230831973E-08 0.218275482724E+01
    0.355392694473E-05 0.940563844051E-02 0.761821866035E-05 0.515374205399E+04
    0.561584000000E+06 0.193715095520E-06 0.138743752921E+01 0.186264514923E-08
    0.987025124164E+00 0.240843750000E+03-0.872646056365E+00-0.775603735580E-08
    0.133219834855E-09 0.100000000000E+01 0.138500000000E+04 0.000000000000E+00
    0.200000000000E+01 0.000000000000E+00-0.698491930962E-08 0.770000000000E+02
    0.561168000000E+06 0.400000000000E+01 0.000000000000E+00 0.000000000000E+00
 1 06  7 29 12  0  0.0 0.680275261402E-04 0.216004991671E-11 0.000000000000E+00
    0.172000000000E+03 0.690000000000E+02 0.403195366134E-08 0.377544863996E+00
    0.365078449249E-05 0.621004577260E-02 0.700727105141E-05 0.515370517731E+04
    0.561600000000E+06-0.633299350738E-07 0.143578549857E+01 0.260770320892E-07
    0.988058779654E+00 0.260718750000E+03-0.176221518857E+01-0.800497629654E-08
    0.204651381694E-09 0.100000000000E+01 0.138500000000E+04 0.000000000000E+00
    0.280000000000E+01 0.000000000000E+00-0.325962901115E-08 0.172000000000E+03
    0.554418000000E+06 0.400000000000E+01 0.000000000000E+00 0.000000000000E+00
 2 06  7 29 12  0  0.0 0.185719691217E-04 0.386535248253E-11 0.000000000000E+00
    0.400000000000E+02 0.250000000000E+00 0.517771567264E-08 0.167367826289E+01
   -0.856816768646E-07 0.886478321627E-02 0.450760126114E-05 0.515370206070E+04
    0.561600000000E+06 0.154599547386E-06-0.701861025043E+00-0.558793544769E-08
    0.949363352977E+00 0.285218750000E+03 0.211813608844E+01-0.833427572747E-08
   -0.113576159474E-09 0.100000000000E+01 0.138500000000E+04 0.000000000000E+00
    0.200000000000E+01 0.000000000000E+00-0.172294676304E-07 0.296000000000E+03
    0.554418000000E+06 0.400000000000E+01 0.000000000000E+00 0.000000000000E+00
 3 06  7 29 12  0  0.0 0.198571011424E-03-0.180762071977E-10 0.000000000000E+00
    0.202000000000E+03 0.458125000000E+02 0.530093524631E-08 0.943903666634E+00
    0.239163637161E-05 0.827952148393E-02 0.886432826519E-05 0.515369317818E+04
    0.561600000000E+06-0.106170773506E-06-0.183932345150E+01 0.875443220139E-07
    0.925893483203E+00 0.190500000000E+03 0.666748728006E+00-0.848392467390E-08
    0.284654716465E-09 0.100000000000E+01 0.138500000000E+04 0.000000000000E+00
    0.280000000000E+01 0.000000000000E+00-0.419095158577E-08 0.458000000000E+03
    0.554418000000E+06 0.400000000000E+01 0.000000000000E+00 0.000000000000E+00
 5 06  7 29 12  0  0.0 0.261357985437E-03 0.278532752418E-10 0.000000000000E+00
    0.191000000000E+03-0.810937500000E+02 0.476591280511E-08-0.236641038069E+01
   -0.412948429585E-05 0.720764917787E-02 0.891461968422E-05 0.515355320358E+04
    0.561600000000E+06 0.223517417908E-07-0.287655213226E+01-0.102445483208E-06
    0.938669565184E+00 0.195156250000E+03 0.106690222727E+01-0.803676333488E-08
   -0.140005831805E-09 0.100000000000E+01 0.138500000000E+04 0.000000000000E+00
    0.280000000000E+01 0.000000000000E+00-0.419095158577E-08 0.447000000000E+03
    0.554730000000E+06 0.000000000000E+00 0.000000000000E+00 0.000000000000E+00
